OBJECT_NAME,OBJECT_ID,EPOCH,MEAN_MOTION,ECCENTRICITY,INCLINATION,RA_OF_ASC_NODE,ARG_OF_PERICENTER,MEAN_ANOMALY,EPHEMERIS_TYPE,CLASSIFICATION_TYPE,NORAD_CAT_ID,ELEMENT_SET_NO,REV_AT_EPOCH,BSTAR,MEAN_MOTION_DOT,MEAN_MOTION_DDOT
GOSAT-GW (IBUKI GW),2025-141A,2026-06-30T19:50:04.581024,14.67554644,.0001426,98.0569,118.9219,84.2996,275.8371,0,U,64694,999,5384,.12353E-3,.653E-5,0
IONOSFERA-M 3,2025-155A,2026-06-30T21:37:45.969600,14.21488652,.0001739,98.6031,143.4614,134.0580,226.0741,0,U,64876,999,4835,.31441E-4,.26E-6,0
IONOSFERA-M 4,2025-155B,2026-06-30T20:46:32.720736,14.21491083,.0001494,98.6030,143.3439,112.5461,247.5874,0,U,64877,999,4834,.39259E-4,.43E-6,0
MICROCARB,2025-156A,2026-06-30T16:08:34.116576,14.72857015,.0016312,97.9949,258.5798,217.9186,142.0874,0,U,64899,999,4995,.92986E-4,.546E-5,0
CO3D 3,2025-156B,2026-06-30T17:55:51.808224,15.20196815,.0001801,97.4336,260.2452,112.0840,248.0586,0,U,64900,999,5159,.20448E-3,.4361E-4,0
CO3D 4,2025-156C,2026-06-30T16:21:18.213120,15.20185063,.0000659,97.4335,260.1801,185.0478,175.0751,0,U,64901,999,5158,.11468E-3,.2415E-4,0
CO3D 2,2025-156D,2026-06-30T18:42:51.270048,15.20199992,.0001472,97.4336,260.1761,94.6958,265.4445,0,U,64902,999,5159,.23075E-3,.4931E-4,0
CO3D 1,2025-156E,2026-06-30T18:43:04.548000,15.20204969,.0001362,97.4336,260.1762,104.8361,255.3025,0,U,64903,999,5159,.22404E-3,.4786E-4,0
PRSC-S1,2025-164A,2026-06-30T12:33:02.422080,15.06550381,.0005019,41.1288,212.6997,84.9950,275.1437,0,U,65055,999,5044,.20191E-3,.2863E-4,0
SENTINEL-6B,2025-264A,2026-06-30T17:58:44.003424,12.80929939,.0007918,66.0411,107.0111,268.8984,91.1124,0,U,66514,999,2890,-.5168E-6,-.61E-6,0
CAS500-3,2025-274F,2026-06-30T09:25:06.257856,14.88352436,.00069353,97.7444,109.1431,76.5580,283.6409,0,U,66655,999,3211,.14439281E-3,.1283E-4,0
CSG-3,2026-001A,2026-06-30T11:57:57.966048,14.82162622,.00014754,97.8889,4.9077,95.4937,264.6445,0,U,67304,999,2643,.4772621E-4,.328E-5,0
PRSC-E03,2026-092A,2026-06-30T20:10:35.141664,15.06741302,.0003027,38.0021,9.1652,146.7627,213.3325,0,U,68835,999,1001,.21192E-3,.3104E-4,0
CAS500-2,2026-100AK,2026-06-30T05:55:37.601472,15.20740849,.00092079,97.3894,78.8620,351.5900,8.5180,0,U,69013,999,879,.27527979E-3,.5997E-4,0
