GOSAT-GW (IBUKI GW)     
1 64694U 25141A   26181.82644191  .00000653  00000+0  12353-3 0  9995
2 64694  98.0569 118.9219 0001426  84.2996 275.8371 14.67554644 53849
IONOSFERA-M 3           
1 64876U 25155A   26181.90122650  .00000026  00000+0  31441-4 0  9996
2 64876  98.6031 143.4614 0001739 134.0580 226.0741 14.21488652 48357
IONOSFERA-M 4           
1 64877U 25155B   26181.86565649  .00000043  00000+0  39259-4 0  9995
2 64877  98.6030 143.3439 0001494 112.5461 247.5874 14.21491083 48344
MICROCARB               
1 64899U 25156A   26181.67261709  .00000546  00000+0  92986-4 0  9993
2 64899  97.9949 258.5798 0016312 217.9186 142.0874 14.72857015 49959
CO3D 3                  
1 64900U 25156B   26181.74712741  .00004361  00000+0  20448-3 0  9993
2 64900  97.4336 260.2452 0001801 112.0840 248.0586 15.20196815 51591
CO3D 4                  
1 64901U 25156C   26181.68146080  .00002415  00000+0  11468-3 0  9994
2 64901  97.4335 260.1801 0000659 185.0478 175.0751 15.20185063 51580
CO3D 2                  
1 64902U 25156D   26181.77976007  .00004931  00000+0  23075-3 0  9997
2 64902  97.4336 260.1761 0001472  94.6958 265.4445 15.20199992 51590
CO3D 1                  
1 64903U 25156E   26181.77991375  .00004786  00000+0  22404-3 0  9996
2 64903  97.4336 260.1762 0001362 104.8361 255.3025 15.20204969 51595
PRSC-S1                 
1 65055U 25164A   26181.52294470  .00002863  00000+0  20191-3 0  9994
2 65055  41.1288 212.6997 0005019  84.9950 275.1437 15.06550381 50449
SENTINEL-6B             
1 66514U 25264A   26181.74912041 -.00000061  00000+0 -51680-6 0  9991
2 66514  66.0411 107.0111 0007918 268.8984  91.1124 12.80929939 28902
CAS500-3                
1 66655U 25274F   26181.39243354  .00001283  00000+0  14439-3 0  9996
2 66655  97.7444 109.1431 0006935  76.5580 283.6409 14.88352436 32111
CSG-3                   
1 67304U 26001A   26181.49858757  .00000328  00000+0  47726-4 0  9992
2 67304  97.8889   4.9077 0001475  95.4937 264.6445 14.82162622 26432
PRSC-E03                
1 68835U 26092A   26181.84068451  .00003104  00000+0  21192-3 0  9998
2 68835  38.0021   9.1652 0003027 146.7627 213.3325 15.06741302 10014
CAS500-2                
1 69013U 26100AK  26181.24696298  .00005997  00000+0  27528-3 0  9998
2 69013  97.3894  78.8620 0009207 351.5900   8.5180 15.20740849  8799
